0 COSMOS 2251 DEB
1 37316U 93036BKG 13280.03831804  .00001466  00000-0  45492-3 0  3451
2 37316 074.0413 135.4511 0084076 246.0223 271.2596 14.40010549215687
0 COSMOS 2251 DEB
1 37316U 93036BKG 13282.58420116  .00001854  00000-0  57294-3 0  3468
2 37316 074.0412 130.7481 0083942 240.6887 149.2477 14.40024121216041
0 COSMOS 2251 DEB
1 37316U 93036BKG 13286.98431959  .00002630  00000-0  80867-3 0  3480
2 37316 074.0408 122.6189 0083794 231.5433 279.8846 14.40040032216681
0 COSMOS 2251 DEB
1 37316U 93036BKG 13288.91345146  .00004029  00000-0  12337-2 0  3498
2 37316 074.0410 119.0565 0083768 227.5122 200.8228 14.40051952216965
0 COSMOS 2251 DEB
1 37316U 93036BKG 13291.21590514  .00003648  00000-0  11179-2 0  3507
2 37316 074.0411 114.8019 0083681 222.7208 257.2189 14.40067808217295
0 COSMOS 2251 DEB
1 37316U 93036BKG 13293.84508338  .00004680  00000-0  14309-2 0  3517
2 37316 074.0417 109.9442 0083593 217.2760 207.5609 14.40085999217678
